ION SCV-004             
1 50993U 22002K   26068.68892644  .00006538  00000+0  23198-3 0  9998
2 50993  97.2961 128.2294 0007216   1.6783 358.4480 15.29369331230088
STARLINK-30550          
1 58045U 23156T   26068.08855197 -.00000029  00000+0  11124-4 0  9998
2 58045  53.1626   4.1379 0000923 116.9815 243.1280 15.30196537137287
